{"fetched_at":"2026-07-16T17:46:24.924Z","source":"https://celestrak.org/NORAD/elements/gp.php?NAME=FIREFLY&FORMAT=JSON","constellation":"pixxel","records":[{"OBJECT_NAME":"FIREFLY-1","OBJECT_ID":"2025-009CW","EPOCH":"2026-07-16T06:03:51.444000","CLASSIFICATION_TYPE":"U","MEAN_MOTION":14.92742458,"ECCENTRICITY":0.00026607,"INCLINATION":97.7061,"RA_OF_ASC_NODE":274.7794,"ARG_OF_PERICENTER":218.4843,"MEAN_ANOMALY":141.6187,"EPHEMERIS_TYPE":0,"NORAD_CAT_ID":62701,"ELEMENT_SET_NO":999,"REV_AT_EPOCH":8165,"BSTAR":0.000048082988,"MEAN_MOTION_DOT":0.00000441,"MEAN_MOTION_DDOT":0},{"OBJECT_NAME":"FIREFLY-2","OBJECT_ID":"2025-009CZ","EPOCH":"2026-07-16T05:32:02.925888","CLASSIFICATION_TYPE":"U","MEAN_MOTION":14.92736744,"ECCENTRICITY":0.00062931,"INCLINATION":97.7018,"RA_OF_ASC_NODE":274.527,"ARG_OF_PERICENTER":359.6064,"MEAN_ANOMALY":0.515,"EPHEMERIS_TYPE":0,"NORAD_CAT_ID":62704,"ELEMENT_SET_NO":999,"REV_AT_EPOCH":8165,"BSTAR":0.000075739231,"MEAN_MOTION_DOT":0.00000727,"MEAN_MOTION_DDOT":0},{"OBJECT_NAME":"FIREFLY-3","OBJECT_ID":"2025-009DF","EPOCH":"2026-07-16T06:36:59.527008","CLASSIFICATION_TYPE":"U","MEAN_MOTION":14.92801077,"ECCENTRICITY":0.00047228,"INCLINATION":97.7052,"RA_OF_ASC_NODE":274.8317,"ARG_OF_PERICENTER":70.9565,"MEAN_ANOMALY":289.2166,"EPHEMERIS_TYPE":0,"NORAD_CAT_ID":62710,"ELEMENT_SET_NO":999,"REV_AT_EPOCH":8167,"BSTAR":0.000047688135,"MEAN_MOTION_DOT":0.00000438,"MEAN_MOTION_DDOT":0}]}
