FIREFLY-1               
1 62701U 25009CW  26197.25267875  .00000441  00000+0  48083-4 0  9994
2 62701  97.7061 274.7794 0002660 218.4843 141.6187 14.92742458 81656
FIREFLY-2               
1 62704U 25009CZ  26197.23058942  .00000727  00000+0  75739-4 0  9993
2 62704  97.7018 274.5270 0006293 359.6064   0.5150 14.92736744 81651
FIREFLY-3               
1 62710U 25009DF  26197.27568897  .00000438  00000+0  47688-4 0  9990
2 62710  97.7052 274.8317 0004722  70.9565 289.2166 14.92801077 81672
